NORAD_CAT_ID,OBJECT_NAME,OBJECT_TYPE,EPOCH,MEAN_MOTION,ECCENTRICITY,INCLINATION,RA_OF_ASC_NODE,ARG_OF_PERICENTER,MEAN_ANOMALY,BSTAR,MEAN_MOTION_DOT,MEAN_MOTION_DDOT,TLE_LINE0,TLE_LINE1,TLE_LINE2,SEMIMAJOR_AXIS,PERIOD,APOGEE,PERIGEE,DECAYED
51875.0,STARLINK-3585,PAYLOAD,2024-01-16 04:00:55,15.08843181,0.0001527,53.2176,286.4007,107.0239,253.092,-1.6144e-05,-5.45e-06,0.0,0 STARLINK-3585,1 51875U 22022Z   24016.16730970 -.00000545  00000-0 -16144-4 0  9996,2 51875  53.2176 286.4007 0001527 107.0239 253.0920 15.08843181104832,6917.871,95.437,540.792,538.679,0.0
51875.0,STARLINK-3585,PAYLOAD,2024-01-16 21:30:09,15.08846679,0.0001739,53.2193,283.1328,123.3702,236.7456,-8.004e-05,-1.562e-05,0.0,0 STARLINK-3585,1 51875U 22022Z   24016.89594859 -.00001562  00000-0 -80040-4 0  9996,2 51875  53.2193 283.1328 0001739 123.3702 236.7456 15.08846679104941,6917.86,95.437,540.928,538.522,0.0
51875.0,STARLINK-3585,PAYLOAD,2024-01-16 23:05:32,15.08848515,0.0001552,53.2177,282.8362,116.9681,243.147,-6.6378e-05,-1.345e-05,0.0,0 STARLINK-3585,1 51875U 22022Z   24016.96218721 -.00001345  00000-0 -66378-4 0  9992,2 51875  53.2177 282.8362 0001552 116.9681 243.1470 15.08848515104954,6917.854,95.437,540.793,538.646,0.0
51875.0,STARLINK-3585,PAYLOAD,2024-01-17 22:56:20,15.08833618,0.0001576,53.2174,278.3775,114.0005,246.1152,1.8298e-05,3e-08,0.0,0 STARLINK-3585,1 51875U 22022Z   24017.95579838  .00000003  00000-0  18298-4 0  9997,2 51875  53.2174 278.3775 0001576 114.0005 246.1152 15.08833618105100,6917.9,95.438,540.855,538.675,0.0
51875.0,STARLINK-3585,PAYLOAD,2024-01-18 03:42:30,15.08839104,0.0001677,53.2174,277.4848,121.2475,238.8681,3.2417e-05,2.28e-06,0.0,0 STARLINK-3585,1 51875U 22022Z   24018.15451454  .00000228  00000-0  32417-4 0  9991,2 51875  53.2174 277.4848 0001677 121.2475 238.8681 15.08839104105138,6917.883,95.438,540.908,538.588,0.0
51875.0,STARLINK-3585,PAYLOAD,2024-01-18 21:11:44,15.08840601,0.0001344,53.2164,274.2113,105.936,254.178,3.7094e-05,3.02e-06,0.0,0 STARLINK-3585,1 51875U 22022Z   24018.88315619  .00000302  00000-0  37094-4 0  9992,2 51875  53.2164 274.2113 0001344 105.9360 254.1780 15.08840601105247,6917.879,95.438,540.673,538.814,0.0
51875.0,STARLINK-3585,PAYLOAD,2024-01-19 01:57:53,15.08848163,0.0001344,53.2165,273.3199,98.7398,261.3747,0.00010471,1.379e-05,0.0,0 STARLINK-3585,1 51875U 22022Z   24019.08186952  .00001379  00000-0  10471-3 0  9995,2 51875  53.2165 273.3199 0001344  98.7398 261.3747 15.08848163105279,6917.855,95.437,540.65,538.791,0.0
51875.0,STARLINK-3585,PAYLOAD,2024-01-19 22:37:54,15.08840245,0.0001581,53.2168,269.4524,102.4779,257.639,7.9652e-05,9.8e-06,0.0,0 STARLINK-3585,1 51875U 22022Z   24019.94299611  .00000980  00000-0  79652-4 0  9991,2 51875  53.2168 269.4524 0001581 102.4779 257.6390 15.08840245105409,6917.88,95.438,540.838,538.651,0.0
51875.0,STARLINK-3585,PAYLOAD,2024-01-20 00:13:17,15.08841876,0.0001577,53.217,269.1542,88.5585,271.5587,0.00011048,1.471e-05,0.0,0 STARLINK-3585,1 51875U 22022Z   24020.00923520  .00001471  00000-0  11048-3 0  9993,2 51875  53.2170 269.1542 0001577  88.5585 271.5587 15.08841876105418,6917.875,95.437,540.831,538.649,0.0
51875.0,STARLINK-3585,PAYLOAD,2024-01-20 16:07:09,15.08833495,0.0001417,53.2176,266.1813,111.7967,248.3176,1.7402e-05,-1.1e-07,0.0,0 STARLINK-3585,1 51875U 22022Z   24020.67164288 -.00000011  00000-0  17402-4 0  9995,2 51875  53.2176 266.1813 0001417 111.7967 248.3176 15.08833495105513,6917.9,95.438,540.746,538.785,0.0
51875.0,STARLINK-3585,PAYLOAD,2024-01-20 22:28:42,15.08841417,0.000144,53.2162,264.9925,102.3653,257.7501,-1.3927e-05,-5.1e-06,0.0,0 STARLINK-3585,1 51875U 22022Z   24020.93660029 -.00000510  00000-0 -13927-4 0  9991,2 51875  53.2162 264.9925 0001440 102.3653 257.7501 15.08841417105555,6917.876,95.437,540.737,538.745,0.0
51875.0,STARLINK-3585,PAYLOAD,2024-01-21 01:39:28,15.08842444,0.0001469,53.2163,264.3972,108.725,251.3902,3.5091e-06,-2.32e-06,0.0,0 STARLINK-3585,1 51875U 22022Z   24021.06907867 -.00000232  00000-0  35091-5 0  9997,2 51875  53.2163 264.3972 0001469 108.7250 251.3902 15.08842444105574,6917.873,95.437,540.754,538.722,0.0
51875.0,STARLINK-3585,PAYLOAD,2024-01-21 22:19:28,15.08853142,0.0001479,53.2163,260.5321,91.8239,268.2922,7.5648e-05,9.17e-06,0.0,0 STARLINK-3585,1 51875U 22022Z   24021.93019099  .00000917  00000-0  75648-4 0  9994,2 51875  53.2163 260.5321 0001479  91.8239 268.2922 15.08853142105701,6917.84,95.437,540.728,538.682,0.0
51875.0,STARLINK-3585,PAYLOAD,2024-01-22 01:30:14,15.08854099,0.0001517,53.2161,259.9369,108.657,251.4587,0.00011375,1.523e-05,0.0,0 STARLINK-3585,1 51875U 22022Z   24022.06266799  .00001523  00000-0  11375-3 0  9990,2 51875  53.2161 259.9369 0001517 108.6570 251.4587 15.08854099105726,6917.837,95.437,540.752,538.653,0.0
51875.0,STARLINK-3585,PAYLOAD,2024-01-22 18:59:29,15.08839646,0.0001863,53.2161,256.6647,118.9773,241.1406,6.4531e-05,7.39e-06,0.0,0 STARLINK-3585,1 51875U 22022Z   24022.79131928  .00000739  00000-0  64531-4 0  9996,2 51875  53.2161 256.6647 0001863 118.9773 241.1406 15.08839646105831,6917.881,95.438,541.035,538.458,0.0
51875.0,STARLINK-3585,PAYLOAD,2024-01-22 22:10:16,15.0884107,0.0001694,53.2168,256.0654,131.8023,228.3114,2.1463e-05,5.4e-07,0.0,0 STARLINK-3585,1 51875U 22022Z   24022.92379896  .00000054  00000-0  21463-4 0  9996,2 51875  53.2168 256.0654 0001694 131.8023 228.3114 15.08841070105853,6917.877,95.437,540.914,538.57,0.0
51875.0,STARLINK-3585,PAYLOAD,2024-01-23 20:25:39,15.08852022,0.0001602,53.2168,251.9013,124.9397,235.1746,1.9981e-06,-2.56e-06,0.0,0 STARLINK-3585,1 51875U 22022Z   24023.85115074 -.00000256  00000-0  19981-5 0  9993,2 51875  53.2168 251.9013 0001602 124.9397 235.1746 15.08852022105993,6917.844,95.437,540.817,538.6,0.0
51875.0,STARLINK-3585,PAYLOAD,2024-01-24 20:16:27,15.08836332,0.0001194,53.2154,247.4477,80.7498,279.3629,2.6124e-05,1.28e-06,0.0,0 STARLINK-3585,1 51875U 22022Z   24024.84476392  .00000128  00000-0  26124-4 0  9999,2 51875  53.2154 247.4477 0001194  80.7498 279.3629 15.08836332106143,6917.892,95.438,540.583,538.931,0.0
51875.0,STARLINK-3585,PAYLOAD,2024-01-25 21:42:38,15.08792144,0.0001454,53.2156,242.6906,77.7707,282.3448,0.00067471,0.00010452,0.0,0 STARLINK-3585,1 51875U 22022Z   24025.90461595  .00010452  00000-0  67471-3 0  9996,2 51875  53.2156 242.6906 0001454  77.7707 282.3448 15.08792144106300,6918.027,95.441,540.898,538.886,0.0
51875.0,STARLINK-3585,PAYLOAD,2024-01-25 23:18:01,15.08795925,0.0001474,53.216,242.3917,88.4294,271.6867,0.00065845,0.00010194,0.0,0 STARLINK-3585,1 51875U 22022Z   24025.97085512  .00010194  00000-0  65845-3 0  9990,2 51875  53.2160 242.3917 0001474  88.4294 271.6867 15.08795925106313,6918.015,95.44,540.9,538.86,0.0
51875.0,STARLINK-3585,PAYLOAD,2024-01-26 18:22:38,15.08843312,0.0001163,53.2159,238.8248,84.5028,275.6097,0.00018583,2.671e-05,0.0,0 STARLINK-3585,1 51875U 22022Z   24026.76571859  .00002671  00000-0  18583-3 0  9990,2 51875  53.2159 238.8248 0001163  84.5028 275.6097 15.08843312106431,6917.87,95.437,540.54,538.931,0.0
51875.0,STARLINK-3585,PAYLOAD,2024-01-27 13:27:15,15.08836376,0.0001363,53.2156,235.2628,70.4444,289.6695,0.00024095,3.549e-05,0.0,0 STARLINK-3585,1 51875U 22022Z   24027.56060152  .00003549  00000-0  24095-3 0  9998,2 51875  53.2156 235.2628 0001363  70.4444 289.6695 15.08836376106553,6917.891,95.438,540.699,538.814,0.0
51875.0,STARLINK-3585,PAYLOAD,2024-01-27 19:48:48,15.08840777,0.0001274,53.2161,234.0683,79.0237,281.0898,4.7437e-05,4.67e-06,0.0,0 STARLINK-3585,1 51875U 22022Z   24027.82556522  .00000467  00000-0  47437-4 0  9990,2 51875  53.2161 234.0683 0001274  79.0237 281.0898 15.08840777106598,6917.878,95.438,540.624,538.862,0.0
51875.0,STARLINK-3585,PAYLOAD,2024-01-27 21:24:11,15.08840607,0.0001296,53.2163,233.771,78.2817,281.832,4.1137e-05,3.67e-06,0.0,0 STARLINK-3585,1 51875U 22022Z   24027.89180469  .00000367  00000-0  41137-4 0  9990,2 51875  53.2163 233.7710 0001296  78.2817 281.8320 15.08840607106608,6917.879,95.438,540.64,538.847,0.0
51875.0,STARLINK-3585,PAYLOAD,2024-01-28 13:18:03,15.08841582,0.00016,53.2167,230.7984,65.0228,295.0931,1.7571e-05,-8e-08,0.0,0 STARLINK-3585,1 51875U 22022Z   24028.55420529 -.00000008  00000-0  17571-4 0  9996,2 51875  53.2167 230.7984 0001600  65.0228 295.0931 15.08841582106700,6917.876,95.437,540.847,538.634,0.0
51875.0,STARLINK-3585,PAYLOAD,2024-01-28 19:39:35,15.0884069,0.0001567,53.2167,229.6087,66.1304,293.9853,7.609e-06,-1.67e-06,0.0,0 STARLINK-3585,1 51875U 22022Z   24028.81916565 -.00000167  00000-0  76090-5 0  9993,2 51875  53.2167 229.6087 0001567  66.1304 293.9853 15.08840690106743,6917.878,95.438,540.827,538.659,0.0
51875.0,STARLINK-3585,PAYLOAD,2024-01-29 13:08:50,15.08840077,0.0001344,53.2162,226.3367,77.6055,282.5087,7.9583e-05,9.79e-06,0.0,0 STARLINK-3585,1 51875U 22022Z   24029.54780250  .00000979  00000-0  79583-4 0  9993,2 51875  53.2162 226.3367 0001344  77.6055 282.5087 15.08840077106850,6917.88,95.438,540.675,538.815,0.0
51875.0,STARLINK-3585,PAYLOAD,2024-01-30 12:59:37,15.08840252,0.0001169,53.2167,221.8755,86.5191,273.5935,5.4934e-05,5.87e-06,0.0,0 STARLINK-3585,1 51875U 22022Z   24030.54140343  .00000587  00000-0  54934-4 0  9996,2 51875  53.2167 221.8755 0001169  86.5191 273.5935 15.08840252107006,6917.88,95.438,540.553,538.936,0.0
51875.0,STARLINK-3585,PAYLOAD,2024-01-30 17:45:46,15.08839788,0.0001225,53.2167,220.9827,94.77,265.3432,4.4235e-05,4.16e-06,0.0,0 STARLINK-3585,1 51875U 22022Z   24030.74012368  .00000416  00000-0  44235-4 0  9997,2 51875  53.2167 220.9827 0001225  94.7700 265.3432 15.08839788107032,6917.881,95.438,540.593,538.899,0.0
51875.0,STARLINK-3585,PAYLOAD,2024-01-31 12:50:24,15.08836055,0.0001246,53.2164,217.4141,94.4895,265.6239,1.8983e-05,1.4e-07,0.0,0 STARLINK-3585,1 51875U 22022Z   24031.53500782  .00000014  00000-0  18983-4 0  9992,2 51875  53.2164 217.4141 0001246  94.4895 265.6239 15.08836055107159,6917.892,95.438,540.619,538.895,0.0
